[{"OBJECT_NAME":"ONEWEB-0567","OBJECT_ID":"2023-004H","EPOCH":"2026-05-22T00:50:56.213376","MEAN_MOTION":13.18685508,"ECCENTRICITY":0.0001487,"INCLINATION":87.9163,"RA_OF_ASC_NODE":340.6773,"ARG_OF_PERICENTER":92.458,"MEAN_ANOMALY":267.6722,"EPHEMERIS_TYPE":0,"CLASSIFICATION_TYPE":"U","NORAD_CAT_ID":55147,"ELEMENT_SET_NO":999,"REV_AT_EPOCH":16625,"BSTAR":0.00010849,"MEAN_MOTION_DOT":5.6e-07,"MEAN_MOTION_DDOT":0.0},{"OBJECT_NAME":"ONEWEB-0569","OBJECT_ID":"2023-004J","EPOCH":"2026-05-22T06:14:30.957792","MEAN_MOTION":13.13471592,"ECCENTRICITY":9.01e-05,"INCLINATION":87.8949,"RA_OF_ASC_NODE":325.3834,"ARG_OF_PERICENTER":78.9541,"MEAN_ANOMALY":281.169,"EPHEMERIS_TYPE":0,"CLASSIFICATION_TYPE":"U","NORAD_CAT_ID":55148,"ELEMENT_SET_NO":999,"REV_AT_EPOCH":16677,"BSTAR":0.0006366500000000001,"MEAN_MOTION_DOT":2.45e-06,"MEAN_MOTION_DDOT":0.0},{"OBJECT_NAME":"ONEWEB-0570","OBJECT_ID":"2023-004K","EPOCH":"2026-05-22T06:06:35.813088","MEAN_MOTION":13.18687909,"ECCENTRICITY":0.000198,"INCLINATION":87.916,"RA_OF_ASC_NODE":340.6318,"ARG_OF_PERICENTER":101.0899,"MEAN_ANOMALY":259.0456,"EPHEMERIS_TYPE":0,"CLASSIFICATION_TYPE":"U","NORAD_CAT_ID":55149,"ELEMENT_SET_NO":999,"REV_AT_EPOCH":16627,"BSTAR":1.1036e-05,"MEAN_MOTION_DOT":1.7e-07,"MEAN_MOTION_DDOT":0.0},{"OBJECT_NAME":"ONEWEB-0571","OBJECT_ID":"2023-004L","EPOCH":"2026-05-22T05:56:52.963008","MEAN_MOTION":13.18687858,"ECCENTRICITY":8.62e-05,"INCLINATION":87.9161,"RA_OF_ASC_NODE":340.6323,"ARG_OF_PERICENTER":122.1697,"MEAN_ANOMALY":237.9519,"EPHEMERIS_TYPE":0,"CLASSIFICATION_TYPE":"U","NORAD_CAT_ID":55150,"ELEMENT_SET_NO":999,"REV_AT_EPOCH":16628,"BSTAR":-0.00014481,"MEAN_MOTION_DOT":-4.4e-07,"MEAN_MOTION_DDOT":0.0},{"OBJECT_NAME":"ONEWEB-0572","OBJECT_ID":"2023-004M","EPOCH":"2026-05-22T02:14:42.345024","MEAN_MOTION":13.17650517,"ECCENTRICITY":0.0001641,"INCLINATION":87.9154,"RA_OF_ASC_NODE":11.0548,"ARG_OF_PERICENTER":87.9504,"MEAN_ANOMALY":272.1815,"EPHEMERIS_TYPE":0,"CLASSIFICATION_TYPE":"U","NORAD_CAT_ID":55151,"ELEMENT_SET_NO":999,"REV_AT_EPOCH":16404,"BSTAR":-2.8918e-05,"MEAN_MOTION_DOT":2e-08,"MEAN_MOTION_DDOT":0.0},{"OBJECT_NAME":"ONEWEB-0573","OBJECT_ID":"2023-004N","EPOCH":"2026-05-22T05:47:10.004928","MEAN_MOTION":13.1868641,"ECCENTRICITY":0.0001131,"INCLINATION":87.9162,"RA_OF_ASC_NODE":340.6349,"ARG_OF_PERICENTER":110.2929,"MEAN_ANOMALY":249.8325,"EPHEMERIS_TYPE":0,"CLASSIFICATION_TYPE":"U","NORAD_CAT_ID":55152,"ELEMENT_SET_NO":999,"REV_AT_EPOCH":16627,"BSTAR":-7.3762e-05,"MEAN_MOTION_DOT":-1.6e-07,"MEAN_MOTION_DDOT":0.0},{"OBJECT_NAME":"ONEWEB-0588","OBJECT_ID":"2023-004P","EPOCH":"2026-05-22T01:58:55.590240","MEAN_MOTION":13.18687359,"ECCENTRICITY":0.0001908,"INCLINATION":87.9158,"RA_OF_ASC_NODE":340.6671,"ARG_OF_PERICENTER":104.5617,"MEAN_ANOMALY":255.5727,"EPHEMERIS_TYPE":0,"CLASSIFICATION_TYPE":"U","NORAD_CAT_ID":55153,"ELEMENT_SET_NO":999,"REV_AT_EPOCH":16625,"BSTAR":5.2102000000000004e-05,"MEAN_MOTION_DOT":3.3e-07,"MEAN_MOTION_DDOT":0.0},{"OBJECT_NAME":"ONEWEB-0598","OBJECT_ID":"2023-004Q","EPOCH":"2026-05-22T01:36:08.280000","MEAN_MOTION":13.11417202,"ECCENTRICITY":0.0001136,"INCLINATION":87.8907,"RA_OF_ASC_NODE":26.2661,"ARG_OF_PERICENTER":79.0114,"MEAN_ANOMALY":281.1142,"EPHEMERIS_TYPE":0,"CLASSIFICATION_TYPE":"U","NORAD_CAT_ID":55154,"ELEMENT_SET_NO":999,"REV_AT_EPOCH":16247,"BSTAR":0.0005618,"MEAN_MOTION_DOT":2.12e-06,"MEAN_MOTION_DDOT":0.0},{"OBJECT_NAME":"ONEWEB-0599","OBJECT_ID":"2023-004R","EPOCH":"2026-05-22T03:08:09.587328","MEAN_MOTION":13.17651268,"ECCENTRICITY":0.000173,"INCLINATION":87.9155,"RA_OF_ASC_NODE":11.0459,"ARG_OF_PERICENTER":76.8442,"MEAN_ANOMALY":283.2883,"EPHEMERIS_TYPE":0,"CLASSIFICATION_TYPE":"U","NORAD_CAT_ID":55155,"ELEMENT_SET_NO":999,"REV_AT_EPOCH":16405,"BSTAR":0.000191,"MEAN_MOTION_DOT":8.7e-07,"MEAN_MOTION_DDOT":0.0},{"OBJECT_NAME":"ONEWEB-0614","OBJECT_ID":"2023-004S","EPOCH":"2026-05-22T01:28:49.120032","MEAN_MOTION":13.11414641,"ECCENTRICITY":0.0002007,"INCLINATION":87.8907,"RA_OF_ASC_NODE":26.2755,"ARG_OF_PERICENTER":85.7229,"MEAN_ANOMALY":274.4128,"EPHEMERIS_TYPE":0,"CLASSIFICATION_TYPE":"U","NORAD_CAT_ID":55156,"ELEMENT_SET_NO":999,"REV_AT_EPOCH":16241,"BSTAR":0.0010619000000000002,"MEAN_MOTION_DOT":3.89e-06,"MEAN_MOTION_DDOT":0.0},{"OBJECT_NAME":"ONEWEB-0616","OBJECT_ID":"2023-004T","EPOCH":"2026-05-22T02:19:34.956768","MEAN_MOTION":13.17648876,"ECCENTRICITY":0.0001998,"INCLINATION":87.9158,"RA_OF_ASC_NODE":11.0555,"ARG_OF_PERICENTER":55.3502,"MEAN_ANOMALY":304.7818,"EPHEMERIS_TYPE":0,"CLASSIFICATION_TYPE":"U","NORAD_CAT_ID":55157,"ELEMENT_SET_NO":999,"REV_AT_EPOCH":16426,"BSTAR":3.8279000000000004e-05,"MEAN_MOTION_DOT":2.8e-07,"MEAN_MOTION_DDOT":0.0},{"OBJECT_NAME":"ONEWEB-0617","OBJECT_ID":"2023-004U","EPOCH":"2026-05-22T03:01:35.892768","MEAN_MOTION":13.1141644,"ECCENTRICITY":0.0002025,"INCLINATION":87.8914,"RA_OF_ASC_NODE":26.2523,"ARG_OF_PERICENTER":93.5536,"MEAN_ANOMALY":266.5823,"EPHEMERIS_TYPE":0,"CLASSIFICATION_TYPE":"U","NORAD_CAT_ID":55158,"ELEMENT_SET_NO":999,"REV_AT_EPOCH":16244,"BSTAR":0.0015453,"MEAN_MOTION_DOT":5.6e-06,"MEAN_MOTION_DDOT":0.0},{"OBJECT_NAME":"ONEWEB-0618","OBJECT_ID":"2023-004V","EPOCH":"2026-05-22T03:11:15.106272","MEAN_MOTION":15.12916735,"ECCENTRICITY":0.0013837,"INCLINATION":86.9114,"RA_OF_ASC_NODE":188.2082,"ARG_OF_PERICENTER":42.0785,"MEAN_ANOMALY":318.1515,"EPHEMERIS_TYPE":0,"CLASSIFICATION_TYPE":"U","NORAD_CAT_ID":55159,"ELEMENT_SET_NO":999,"REV_AT_EPOCH":17832,"BSTAR":0.00024853,"MEAN_MOTION_DOT":4.417e-05,"MEAN_MOTION_DDOT":0.0},{"OBJECT_NAME":"ONEWEB-0619","OBJECT_ID":"2023-004W","EPOCH":"2026-05-22T03:05:45.086784","MEAN_MOTION":13.17649233,"ECCENTRICITY":0.0002306,"INCLINATION":87.9166,"RA_OF_ASC_NODE":11.0279,"ARG_OF_PERICENTER":82.6104,"MEAN_ANOMALY":277.5289,"EPHEMERIS_TYPE":0,"CLASSIFICATION_TYPE":"U","NORAD_CAT_ID":55160,"ELEMENT_SET_NO":999,"REV_AT_EPOCH":16416,"BSTAR":-0.00014479,"MEAN_MOTION_DOT":-4.3e-07,"MEAN_MOTION_DDOT":0.0},{"OBJECT_NAME":"ONEWEB-0620","OBJECT_ID":"2023-004X","EPOCH":"2026-05-22T02:54:16.527168","MEAN_MOTION":13.11417272,"ECCENTRICITY":0.0001605,"INCLINATION":87.8911,"RA_OF_ASC_NODE":26.2634,"ARG_OF_PERICENTER":86.9992,"MEAN_ANOMALY":273.132,"EPHEMERIS_TYPE":0,"CLASSIFICATION_TYPE":"U","NORAD_CAT_ID":55161,"ELEMENT_SET_NO":999,"REV_AT_EPOCH":16241,"BSTAR":0.0013442,"MEAN_MOTION_DOT":4.89e-06,"MEAN_MOTION_DDOT":0.0},{"OBJECT_NAME":"ONEWEB-0621","OBJECT_ID":"2023-004Y","EPOCH":"2026-05-22T03:33:19.175904","MEAN_MOTION":13.11414023,"ECCENTRICITY":0.0002014,"INCLINATION":87.8916,"RA_OF_ASC_NODE":26.2445,"ARG_OF_PERICENTER":85.6956,"MEAN_ANOMALY":274.4402,"EPHEMERIS_TYPE":0,"CLASSIFICATION_TYPE":"U","NORAD_CAT_ID":55162,"ELEMENT_SET_NO":999,"REV_AT_EPOCH":16239,"BSTAR":-0.00015055,"MEAN_MOTION_DOT":-4.1e-07,"MEAN_MOTION_DDOT":0.0},{"OBJECT_NAME":"ONEWEB-0622","OBJECT_ID":"2023-004Z","EPOCH":"2026-05-22T01:50:46.345920","MEAN_MOTION":13.11413177,"ECCENTRICITY":0.0002051,"INCLINATION":87.892,"RA_OF_ASC_NODE":26.2608,"ARG_OF_PERICENTER":103.2708,"MEAN_ANOMALY":256.8649,"EPHEMERIS_TYPE":0,"CLASSIFICATION_TYPE":"U","NORAD_CAT_ID":55163,"ELEMENT_SET_NO":999,"REV_AT_EPOCH":16237,"BSTAR":-0.0008130699999999999,"MEAN_MOTION_DOT":-2.75e-06,"MEAN_MOTION_DDOT":0.0},{"OBJECT_NAME":"ONEWEB-0623","OBJECT_ID":"2023-004AA","EPOCH":"2026-05-22T02:58:26.186016","MEAN_MOTION":13.17651136,"ECCENTRICITY":0.0002502,"INCLINATION":87.9154,"RA_OF_ASC_NODE":11.0624,"ARG_OF_PERICENTER":94.9657,"MEAN_ANOMALY":265.176,"EPHEMERIS_TYPE":0,"CLASSIFICATION_TYPE":"U","NORAD_CAT_ID":55164,"ELEMENT_SET_NO":999,"REV_AT_EPOCH":16415,"BSTAR":0.00014143,"MEAN_MOTION_DOT":6.8e-07,"MEAN_MOTION_DDOT":0.0},{"OBJECT_NAME":"ONEWEB-0624","OBJECT_ID":"2023-004AB","EPOCH":"2026-05-22T06:48:42.510240","MEAN_MOTION":13.12926515,"ECCENTRICITY":0.0001888,"INCLINATION":87.8958,"RA_OF_ASC_NODE":355.7414,"ARG_OF_PERICENTER":88.2526,"MEAN_ANOMALY":271.8819,"EPHEMERIS_TYPE":0,"CLASSIFICATION_TYPE":"U","NORAD_CAT_ID":55165,"ELEMENT_SET_NO":999,"REV_AT_EPOCH":16467,"BSTAR":0.0007019,"MEAN_MOTION_DOT":2.67e-06,"MEAN_MOTION_DDOT":0.0},{"OBJECT_NAME":"ONEWEB-0625","OBJECT_ID":"2023-004AC","EPOCH":"2026-05-22T02:43:52.977504","MEAN_MOTION":13.17649663,"ECCENTRICITY":0.0001885,"INCLINATION":87.9157,"RA_OF_ASC_NODE":11.0592,"ARG_OF_PERICENTER":79.1755,"MEAN_ANOMALY":280.9589,"EPHEMERIS_TYPE":0,"CLASSIFICATION_TYPE":"U","NORAD_CAT_ID":55166,"ELEMENT_SET_NO":999,"REV_AT_EPOCH":16414,"BSTAR":-5.5409e-05,"MEAN_MOTION_DOT":-9e-08,"MEAN_MOTION_DDOT":0.0},{"OBJECT_NAME":"ONEWEB-0626","OBJECT_ID":"2023-004AD","EPOCH":"2026-05-22T02:29:16.601568","MEAN_MOTION":13.17650287,"ECCENTRICITY":0.0001387,"INCLINATION":87.9157,"RA_OF_ASC_NODE":11.0611,"ARG_OF_PERICENTER":87.1167,"MEAN_ANOMALY":273.0124,"EPHEMERIS_TYPE":0,"CLASSIFICATION_TYPE":"U","NORAD_CAT_ID":55167,"ELEMENT_SET_NO":999,"REV_AT_EPOCH":16414,"BSTAR":-3.1633e-05,"MEAN_MOTION_DOT":1e-08,"MEAN_MOTION_DDOT":0.0},{"OBJECT_NAME":"ONEWEB-0627","OBJECT_ID":"2023-004AE","EPOCH":"2026-05-22T02:12:16.316064","MEAN_MOTION":13.17650364,"ECCENTRICITY":0.0002266,"INCLINATION":87.9158,"RA_OF_ASC_NODE":11.0637,"ARG_OF_PERICENTER":92.4179,"MEAN_ANOMALY":267.7212,"EPHEMERIS_TYPE":0,"CLASSIFICATION_TYPE":"U","NORAD_CAT_ID":55168,"ELEMENT_SET_NO":999,"REV_AT_EPOCH":16414,"BSTAR":2.6711000000000002e-05,"MEAN_MOTION_DOT":2.3e-07,"MEAN_MOTION_DDOT":0.0},{"OBJECT_NAME":"ONEWEB-0628","OBJECT_ID":"2023-004AF","EPOCH":"2026-05-22T02:28:38.005824","MEAN_MOTION":13.12444911,"ECCENTRICITY":0.0002444,"INCLINATION":87.896,"RA_OF_ASC_NODE":355.84,"ARG_OF_PERICENTER":93.0929,"MEAN_ANOMALY":267.0479,"EPHEMERIS_TYPE":0,"CLASSIFICATION_TYPE":"U","NORAD_CAT_ID":55169,"ELEMENT_SET_NO":999,"REV_AT_EPOCH":16461,"BSTAR":0.00029796,"MEAN_MOTION_DOT":1.2e-06,"MEAN_MOTION_DDOT":0.0}]